ALOS-4 (DAICHI-4)       
1 60182U 24123A   24296.88798932  .00007559  00000+0  10178-2 0  9990
2 60182  97.9215  31.7064 0001375  98.2957 261.8411 14.79477720 16827
